[{"OBJECT_NAME":"ONEWEB-0615","OBJECT_ID":"2022-166AL","EPOCH":"2026-02-25T01:39:47.178720","MEAN_MOTION":13.21824922,"ECCENTRICITY":0.0001604,"INCLINATION":87.9163,"RA_OF_ASC_NODE":266.3506,"ARG_OF_PERICENTER":87.9096,"MEAN_ANOMALY":272.2221,"EPHEMERIS_TYPE":0,"CLASSIFICATION_TYPE":"U","NORAD_CAT_ID":54676,"ELEMENT_SET_NO":999,"REV_AT_EPOCH":15663,"BSTAR":0.00031229,"MEAN_MOTION_DOT":1.42e-6,"MEAN_MOTION_DDOT":0},{"OBJECT_NAME":"ONEWEB-0655","OBJECT_ID":"2022-166AM","EPOCH":"2026-02-25T02:53:14.604288","MEAN_MOTION":13.21825593,"ECCENTRICITY":0.000132,"INCLINATION":87.9169,"RA_OF_ASC_NODE":266.3429,"ARG_OF_PERICENTER":90.9604,"MEAN_ANOMALY":269.1681,"EPHEMERIS_TYPE":0,"CLASSIFICATION_TYPE":"U","NORAD_CAT_ID":54677,"ELEMENT_SET_NO":999,"REV_AT_EPOCH":15663,"BSTAR":0.00031451,"MEAN_MOTION_DOT":1.43e-6,"MEAN_MOTION_DDOT":0},{"OBJECT_NAME":"ONEWEB-0659","OBJECT_ID":"2022-166AN","EPOCH":"2026-02-25T03:16:56.122752","MEAN_MOTION":13.21826183,"ECCENTRICITY":0.0001697,"INCLINATION":87.9168,"RA_OF_ASC_NODE":266.3402,"ARG_OF_PERICENTER":88.6648,"MEAN_ANOMALY":271.4681,"EPHEMERIS_TYPE":0,"CLASSIFICATION_TYPE":"U","NORAD_CAT_ID":54678,"ELEMENT_SET_NO":999,"REV_AT_EPOCH":15672,"BSTAR":0.00017814,"MEAN_MOTION_DOT":8.7e-7,"MEAN_MOTION_DDOT":0},{"OBJECT_NAME":"ONEWEB-0685","OBJECT_ID":"2022-166AP","EPOCH":"2026-02-25T03:17:19.723776","MEAN_MOTION":13.21811549,"ECCENTRICITY":0.0001435,"INCLINATION":87.9165,"RA_OF_ASC_NODE":266.3357,"ARG_OF_PERICENTER":86.2118,"MEAN_ANOMALY":273.918,"EPHEMERIS_TYPE":0,"CLASSIFICATION_TYPE":"U","NORAD_CAT_ID":54679,"ELEMENT_SET_NO":999,"REV_AT_EPOCH":15661,"BSTAR":0.00016346,"MEAN_MOTION_DOT":8.1e-7,"MEAN_MOTION_DDOT":0},{"OBJECT_NAME":"ONEWEB-0712","OBJECT_ID":"2022-166AQ","EPOCH":"2026-02-25T00:58:18.448320","MEAN_MOTION":13.16593156,"ECCENTRICITY":0.000126,"INCLINATION":87.8992,"RA_OF_ASC_NODE":251.0867,"ARG_OF_PERICENTER":108.96,"MEAN_ANOMALY":251.1668,"EPHEMERIS_TYPE":0,"CLASSIFICATION_TYPE":"U","NORAD_CAT_ID":54680,"ELEMENT_SET_NO":999,"REV_AT_EPOCH":15730,"BSTAR":-0.00014806,"MEAN_MOTION_DOT":-4.4e-7,"MEAN_MOTION_DDOT":0},{"OBJECT_NAME":"ONEWEB-0714","OBJECT_ID":"2022-166AR","EPOCH":"2026-02-25T03:26:23.871840","MEAN_MOTION":13.21827258,"ECCENTRICITY":0.0001393,"INCLINATION":87.9167,"RA_OF_ASC_NODE":266.3287,"ARG_OF_PERICENTER":88.4034,"MEAN_ANOMALY":271.726,"EPHEMERIS_TYPE":0,"CLASSIFICATION_TYPE":"U","NORAD_CAT_ID":54681,"ELEMENT_SET_NO":999,"REV_AT_EPOCH":15673,"BSTAR":0.00043637,"MEAN_MOTION_DOT":1.93e-6,"MEAN_MOTION_DDOT":0},{"OBJECT_NAME":"ONEWEB-0532","OBJECT_ID":"2023-004A","EPOCH":"2026-02-24T15:32:51.641952","MEAN_MOTION":13.17648416,"ECCENTRICITY":0.00021593,"INCLINATION":87.9133,"RA_OF_ASC_NODE":28.2124,"ARG_OF_PERICENTER":74.558,"MEAN_ANOMALY":285.579,"EPHEMERIS_TYPE":0,"CLASSIFICATION_TYPE":"U","NORAD_CAT_ID":55140,"ELEMENT_SET_NO":999,"REV_AT_EPOCH":15276,"BSTAR":0.00019456219,"MEAN_MOTION_DOT":8.8e-7,"MEAN_MOTION_DDOT":0},{"OBJECT_NAME":"ONEWEB-0533","OBJECT_ID":"2023-004B","EPOCH":"2026-02-25T03:50:29.605632","MEAN_MOTION":13.12443154,"ECCENTRICITY":0.000168,"INCLINATION":87.8986,"RA_OF_ASC_NODE":12.8996,"ARG_OF_PERICENTER":77.1632,"MEAN_ANOMALY":282.9684,"EPHEMERIS_TYPE":0,"CLASSIFICATION_TYPE":"U","NORAD_CAT_ID":55141,"ELEMENT_SET_NO":999,"REV_AT_EPOCH":15336,"BSTAR":0.00029464,"MEAN_MOTION_DOT":1.19e-6,"MEAN_MOTION_DDOT":0},{"OBJECT_NAME":"ONEWEB-0541","OBJECT_ID":"2023-004C","EPOCH":"2026-02-24T17:18:02.913984","MEAN_MOTION":13.11415689,"ECCENTRICITY":0.00019885,"INCLINATION":87.8844,"RA_OF_ASC_NODE":43.4176,"ARG_OF_PERICENTER":85.4766,"MEAN_ANOMALY":274.6589,"EPHEMERIS_TYPE":0,"CLASSIFICATION_TYPE":"U","NORAD_CAT_ID":55142,"ELEMENT_SET_NO":999,"REV_AT_EPOCH":15120,"BSTAR":0.0012356624,"MEAN_MOTION_DOT":4.51e-6,"MEAN_MOTION_DDOT":0},{"OBJECT_NAME":"ONEWEB-0543","OBJECT_ID":"2023-004D","EPOCH":"2026-02-25T02:15:42.711840","MEAN_MOTION":13.18685866,"ECCENTRICITY":0.000161,"INCLINATION":87.922,"RA_OF_ASC_NODE":357.7385,"ARG_OF_PERICENTER":86.878,"MEAN_ANOMALY":273.2537,"EPHEMERIS_TYPE":0,"CLASSIFICATION_TYPE":"U","NORAD_CAT_ID":55143,"ELEMENT_SET_NO":999,"REV_AT_EPOCH":15492,"BSTAR":0.00010422,"MEAN_MOTION_DOT":5.4e-7,"MEAN_MOTION_DDOT":0},{"OBJECT_NAME":"ONEWEB-0544","OBJECT_ID":"2023-004E","EPOCH":"2026-02-24T18:49:09.620832","MEAN_MOTION":13.18685521,"ECCENTRICITY":0.00019595,"INCLINATION":87.9233,"RA_OF_ASC_NODE":357.7956,"ARG_OF_PERICENTER":87.0643,"MEAN_ANOMALY":273.0714,"EPHEMERIS_TYPE":0,"CLASSIFICATION_TYPE":"U","NORAD_CAT_ID":55144,"ELEMENT_SET_NO":999,"REV_AT_EPOCH":15488,"BSTAR":0.00026926087,"MEAN_MOTION_DOT":1.19e-6,"MEAN_MOTION_DDOT":0},{"OBJECT_NAME":"ONEWEB-0560","OBJECT_ID":"2023-004F","EPOCH":"2026-02-24T18:39:39.322944","MEAN_MOTION":13.18685493,"ECCENTRICITY":0.00019103,"INCLINATION":87.9235,"RA_OF_ASC_NODE":357.7861,"ARG_OF_PERICENTER":87.6468,"MEAN_ANOMALY":272.4883,"EPHEMERIS_TYPE":0,"CLASSIFICATION_TYPE":"U","NORAD_CAT_ID":55145,"ELEMENT_SET_NO":999,"REV_AT_EPOCH":15489,"BSTAR":9.3524259e-5,"MEAN_MOTION_DOT":5.0e-7,"MEAN_MOTION_DDOT":0},{"OBJECT_NAME":"ONEWEB-0565","OBJECT_ID":"2023-004G","EPOCH":"2026-02-25T01:47:12.043680","MEAN_MOTION":13.18685179,"ECCENTRICITY":0.0002311,"INCLINATION":87.9223,"RA_OF_ASC_NODE":357.7665,"ARG_OF_PERICENTER":84.6163,"MEAN_ANOMALY":275.5232,"EPHEMERIS_TYPE":0,"CLASSIFICATION_TYPE":"U","NORAD_CAT_ID":55146,"ELEMENT_SET_NO":999,"REV_AT_EPOCH":15492,"BSTAR":8.7205e-5,"MEAN_MOTION_DOT":4.7e-7,"MEAN_MOTION_DDOT":0},{"OBJECT_NAME":"ONEWEB-0567","OBJECT_ID":"2023-004H","EPOCH":"2026-02-25T01:37:42.148416","MEAN_MOTION":13.18685142,"ECCENTRICITY":0.0002166,"INCLINATION":87.9232,"RA_OF_ASC_NODE":357.7412,"ARG_OF_PERICENTER":87.0714,"MEAN_ANOMALY":273.0666,"EPHEMERIS_TYPE":0,"CLASSIFICATION_TYPE":"U","NORAD_CAT_ID":55147,"ELEMENT_SET_NO":999,"REV_AT_EPOCH":15492,"BSTAR":9.0634e-5,"MEAN_MOTION_DOT":4.9e-7,"MEAN_MOTION_DDOT":0},{"OBJECT_NAME":"ONEWEB-0569","OBJECT_ID":"2023-004J","EPOCH":"2026-02-25T04:18:21.997728","MEAN_MOTION":13.13467933,"ECCENTRICITY":0.000218,"INCLINATION":87.905,"RA_OF_ASC_NODE":342.4844,"ARG_OF_PERICENTER":104.1676,"MEAN_ANOMALY":255.9696,"EPHEMERIS_TYPE":0,"CLASSIFICATION_TYPE":"U","NORAD_CAT_ID":55148,"ELEMENT_SET_NO":999,"REV_AT_EPOCH":15547,"BSTAR":-0.00013428,"MEAN_MOTION_DOT":-3.6e-7,"MEAN_MOTION_DDOT":0},{"OBJECT_NAME":"ONEWEB-0570","OBJECT_ID":"2023-004K","EPOCH":"2026-02-24T19:55:39.782784","MEAN_MOTION":13.18685927,"ECCENTRICITY":0.00022482,"INCLINATION":87.923,"RA_OF_ASC_NODE":357.7866,"ARG_OF_PERICENTER":72.6286,"MEAN_ANOMALY":287.5092,"EPHEMERIS_TYPE":0,"CLASSIFICATION_TYPE":"U","NORAD_CAT_ID":55149,"ELEMENT_SET_NO":999,"REV_AT_EPOCH":15488,"BSTAR":-5.2296047e-5,"MEAN_MOTION_DOT":-8.0e-8,"MEAN_MOTION_DDOT":0},{"OBJECT_NAME":"ONEWEB-0571","OBJECT_ID":"2023-004L","EPOCH":"2026-02-24T08:50:35.344896","MEAN_MOTION":13.1868544,"ECCENTRICITY":0.00029067,"INCLINATION":87.923,"RA_OF_ASC_NODE":357.877,"ARG_OF_PERICENTER":96.1084,"MEAN_ANOMALY":264.038,"EPHEMERIS_TYPE":0,"CLASSIFICATION_TYPE":"U","NORAD_CAT_ID":55150,"ELEMENT_SET_NO":999,"REV_AT_EPOCH":15483,"BSTAR":0.00010611191,"MEAN_MOTION_DOT":5.5e-7,"MEAN_MOTION_DDOT":0}]
