ONEWEB-0615             
1 54676U 22166AL  26056.06929605  .00000142  00000+0  31229-3 0  9997
2 54676  87.9163 266.3506 0001604  87.9096 272.2221 13.21824922156635
ONEWEB-0655             
1 54677U 22166AM  26056.12030792  .00000143  00000+0  31451-3 0  9993
2 54677  87.9169 266.3429 0001320  90.9604 269.1681 13.21825593156630
ONEWEB-0659             
1 54678U 22166AN  26056.13676068  .00000087  00000+0  17814-3 0  9991
2 54678  87.9168 266.3402 0001697  88.6648 271.4681 13.21826183156722
ONEWEB-0685             
1 54679U 22166AP  26056.13703384  .00000081  00000+0  16346-3 0  9997
2 54679  87.9165 266.3357 0001435  86.2118 273.9180 13.21811549156614
ONEWEB-0712             
1 54680U 22166AQ  26056.04049130 -.00000044  00000+0 -14806-3 0  9991
2 54680  87.8992 251.0867 0001260 108.9600 251.1668 13.16593156157305
ONEWEB-0714             
1 54681U 22166AR  26056.14333185  .00000193  00000+0  43637-3 0  9996
2 54681  87.9167 266.3287 0001393  88.4034 271.7260 13.21827258156737
ONEWEB-0532             
1 55140U 23004A   26055.64781993  .00000088  00000+0  19456-3 0  9992
2 55140  87.9133  28.2124 0002159  74.5580 285.5790 13.17648416152761
ONEWEB-0533             
1 55141U 23004B   26056.16006488  .00000119  00000+0  29464-3 0  9995
2 55141  87.8986  12.8996 0001680  77.1632 282.9684 13.12443154153365
ONEWEB-0541             
1 55142U 23004C   26055.72086706  .00000451  00000+0  12357-2 0  9999
2 55142  87.8844  43.4176 0001988  85.4766 274.6589 13.11415689151204
ONEWEB-0543             
1 55143U 23004D   26056.09424435  .00000054  00000+0  10422-3 0  9997
2 55143  87.9220 357.7385 0001610  86.8780 273.2537 13.18685866154923
ONEWEB-0544             
1 55144U 23004E   26055.78413913  .00000119  00000+0  26926-3 0  9990
2 55144  87.9233 357.7956 0001959  87.0643 273.0714 13.18685521154887
ONEWEB-0560             
1 55145U 23004F   26055.77753846  .00000050  00000+0  93524-4 0  9995
2 55145  87.9235 357.7861 0001910  87.6468 272.4883 13.18685493154892
ONEWEB-0565             
1 55146U 23004G   26056.07444495  .00000047  00000+0  87205-4 0  9992
2 55146  87.9223 357.7665 0002311  84.6163 275.5232 13.18685179154924
ONEWEB-0567             
1 55147U 23004H   26056.06784894  .00000049  00000+0  90634-4 0  9994
2 55147  87.9232 357.7412 0002166  87.0714 273.0666 13.18685142154926
ONEWEB-0569             
1 55148U 23004J   26056.17942127 -.00000036  00000+0 -13428-3 0  9995
2 55148  87.9050 342.4844 0002180 104.1676 255.9696 13.13467933155473
ONEWEB-0570             
1 55149U 23004K   26055.83032156 -.00000008  00000+0 -52296-4 0  9996
2 55149  87.9230 357.7866 0002248  72.6286 287.5092 13.18685927154883
ONEWEB-0571             
1 55150U 23004L   26055.36846464  .00000055  00000+0  10611-3 0  9995
2 55150  87.9230 357.8770 0002906  96.1084 264.0380 13.18685440154833
